NORAD_CAT_ID,OBJECT_NAME,OBJECT_TYPE,EPOCH,MEAN_MOTION,ECCENTRICITY,INCLINATION,RA_OF_ASC_NODE,ARG_OF_PERICENTER,MEAN_ANOMALY,BSTAR,MEAN_MOTION_DOT,MEAN_MOTION_DDOT,TLE_LINE0,TLE_LINE1,TLE_LINE2,SEMIMAJOR_AXIS,PERIOD,APOGEE,PERIGEE,DECAYED
52629.0,STARLINK-4022,PAYLOAD,2024-04-08 11:37:36,15.08836882,0.0001435,53.2173,172.4265,92.9909,267.1247,8.4393e-05,1.055e-05,0.0,0 STARLINK-4022,1 52629U 22052AH  24099.48444632  .00001055  00000-0  84393-4 0  9996,2 52629  53.2173 172.4265 0001435  92.9909 267.1247 15.08836882105661,6917.89,95.438,540.748,538.762,0.0
52629.0,STARLINK-4022,PAYLOAD,2024-04-09 11:28:23,15.08832385,0.0001372,53.2175,167.966,88.6138,271.5011,0.00012714,1.736e-05,0.0,0 STARLINK-4022,1 52629U 22052AH  24100.47805186  .00001736  00000-0  12714-3 0  9996,2 52629  53.2175 167.9660 0001372  88.6138 271.5011 15.08832385105816,6917.904,95.438,540.718,538.82,0.0
52629.0,STARLINK-4022,PAYLOAD,2024-04-09 21:00:41,15.08842814,0.0001321,53.2172,166.1807,85.8413,274.273,0.00012598,1.718e-05,0.0,0 STARLINK-4022,1 52629U 22052AH  24100.87548551  .00001718  00000-0  12598-3 0  9990,2 52629  53.2172 166.1807 0001321  85.8413 274.2730 15.08842814105878,6917.872,95.437,540.651,538.823,0.0
52629.0,STARLINK-4022,PAYLOAD,2024-04-10 12:54:33,15.08843707,0.0001634,53.219,163.2112,101.5109,258.6067,-0.00014354,-2.572e-05,0.0,0 STARLINK-4022,1 52629U 22052AH  24101.53789351 -.00002572  00000-0 -14354-3 0  9992,2 52629  53.2190 163.2112 0001634 101.5109 258.6067 15.08843707105972,6917.869,95.437,540.864,538.604,0.0
52629.0,STARLINK-4022,PAYLOAD,2024-04-10 20:51:29,15.08838117,0.000157,53.219,161.7242,95.7852,264.3319,3.464e-05,2.63e-06,0.0,0 STARLINK-4022,1 52629U 22052AH  24101.86909370  .00000263  00000-0  34640-4 0  9997,2 52629  53.2190 161.7242 0001570  95.7852 264.3319 15.08838117105644,6917.886,95.438,540.837,538.665,0.0
52629.0,STARLINK-4022,PAYLOAD,2024-04-11 09:34:34,15.08839406,0.0001635,53.2186,159.3453,106.8968,253.2204,9.6197e-05,1.243e-05,0.0,0 STARLINK-4022,1 52629U 22052AH  24102.39901095  .00001243  00000-0  96197-4 0  9996,2 52629  53.2186 159.3453 0001635 106.8968 253.2204 15.08839406105721,6917.882,95.438,540.878,538.616,0.0
52629.0,STARLINK-4022,PAYLOAD,2024-04-11 20:42:15,15.08858055,0.0001472,53.2183,157.2625,88.7654,271.3507,0.00018348,2.635e-05,0.0,0 STARLINK-4022,1 52629U 22052AH  24102.86267517  .00002635  00000-0  18348-3 0  9999,2 52629  53.2183 157.2625 0001472  88.7654 271.3507 15.08858055106173,6917.825,95.436,540.709,538.672,0.0
52629.0,STARLINK-4022,PAYLOAD,2024-04-12 03:03:48,15.08843003,0.0002152,53.2177,156.073,85.1058,275.018,0.00016233,2.296e-05,0.0,0 STARLINK-4022,1 52629U 22052AH  24103.12764651  .00002296  00000-0  16233-3 0  9994,2 52629  53.2177 156.0730 0002152  85.1058 275.0180 15.08843003106215,6917.871,95.437,541.225,538.247,0.0
52629.0,STARLINK-4022,PAYLOAD,2024-04-12 11:00:45,15.08835128,0.0001455,53.2172,154.5852,86.3028,273.813,5.1059e-05,5.25e-06,0.0,0 STARLINK-4022,1 52629U 22052AH  24103.45885479  .00000525  00000-0  51059-4 0  9991,2 52629  53.2172 154.5852 0001455  86.3028 273.8130 15.08835128106268,6917.895,95.438,540.767,538.754,0.0
52629.0,STARLINK-4022,PAYLOAD,2024-04-13 10:51:32,15.08841688,0.0001459,53.217,150.1239,83.8525,276.2633,-4.9188e-05,-1.071e-05,0.0,0 STARLINK-4022,1 52629U 22052AH  24104.45245641 -.00001071  00000-0 -49188-4 0  9992,2 52629  53.2170 150.1239 0001459  83.8525 276.2633 15.08841688106033,6917.875,95.437,540.75,538.731,0.0
52629.0,STARLINK-4022,PAYLOAD,2024-04-14 09:06:55,15.08844326,0.0001655,53.217,145.9607,74.8639,285.2537,0.00017515,2.501e-05,0.0,0 STARLINK-4022,1 52629U 22052AH  24105.37981058  .00002501  00000-0  17515-3 0  9998,2 52629  53.2170 145.9607 0001655  74.8639 285.2537 15.08844326106550,6917.867,95.437,540.877,538.587,0.0
52629.0,STARLINK-4022,PAYLOAD,2024-04-15 08:57:42,15.08846197,0.0001361,53.2151,141.4965,106.6658,253.4484,0.00016619,2.358e-05,0.0,0 STARLINK-4022,1 52629U 22052AH  24106.37340898  .00002358  00000-0  16619-3 0  9994,2 52629  53.2151 141.4965 0001361 106.6658 253.4484 15.08846197106709,6917.861,95.437,540.668,538.785,0.0
52629.0,STARLINK-4022,PAYLOAD,2024-04-16 08:48:29,15.08843949,0.000142,53.2162,137.036,102.2765,257.8386,7.7634e-06,-1.64e-06,0.0,0 STARLINK-4022,1 52629U 22052AH  24107.36701004 -.00000164  00000-0  77634-5 0  9994,2 52629  53.2162 137.0360 0001420 102.2765 257.8386 15.08843949106855,6917.868,95.437,540.716,538.751,0.0
52629.0,STARLINK-4022,PAYLOAD,2024-04-17 02:17:44,15.08835749,0.0001387,53.216,133.768,83.1355,276.9795,3.5194e-05,2.72e-06,0.0,0 STARLINK-4022,1 52629U 22052AH  24108.09565530  .00000272  00000-0  35194-4 0  9990,2 52629  53.2160 133.7680 0001387  83.1355 276.9795 15.08835749106962,6917.893,95.438,540.718,538.799,0.0
52629.0,STARLINK-4022,PAYLOAD,2024-04-17 08:39:17,15.08829356,0.0001339,53.2158,132.5775,80.3284,279.7859,-3.517e-05,-8.47e-06,0.0,0 STARLINK-4022,1 52629U 22052AH  24108.36062201 -.00000847  00000-0 -35170-4 0  9991,2 52629  53.2158 132.5775 0001339  80.3284 279.7859 15.08829356107003,6917.913,95.438,540.704,538.852,0.0
52629.0,STARLINK-4022,PAYLOAD,2024-04-18 11:40:51,15.08829853,0.0001351,53.216,127.5221,78.6316,281.4828,1.7281e-05,-1.3e-07,0.0,0 STARLINK-4022,1 52629U 22052AH  24109.48670746 -.00000013  00000-0  17281-4 0  9991,2 52629  53.2160 127.5221 0001351  78.6316 281.4828 15.08829853107172,6917.911,95.438,540.711,538.842,0.0
52629.0,STARLINK-4022,PAYLOAD,2024-04-19 05:10:05,15.08832437,0.0001352,53.2164,124.2523,94.3007,265.814,0.00014637,2.042e-05,0.0,0 STARLINK-4022,1 52629U 22052AH  24110.21534515  .00002042  00000-0  14637-3 0  9991,2 52629  53.2164 124.2523 0001352  94.3007 265.8140 15.08832437107285,6917.904,95.438,540.704,538.833,0.0
52629.0,STARLINK-4022,PAYLOAD,2024-04-19 09:56:15,15.08836167,0.0001394,53.2166,123.3598,94.2472,265.868,0.00017883,2.559e-05,0.0,0 STARLINK-4022,1 52629U 22052AH  24110.41406377  .00002559  00000-0  17883-3 0  9996,2 52629  53.2166 123.3598 0001394  94.2472 265.8680 15.08836167106934,6917.892,95.438,540.721,538.793,0.0
52629.0,STARLINK-4022,PAYLOAD,2024-04-20 05:00:51,15.08852773,0.0001361,53.2167,119.7914,91.9,268.2148,0.00020923,3.045e-05,0.0,0 STARLINK-4022,1 52629U 22052AH  24111.20893191  .00003045  00000-0  20923-3 0  9998,2 52629  53.2167 119.7914 0001361  91.9000 268.2148 15.08852773107434,6917.841,95.437,540.648,538.765,0.0
52629.0,STARLINK-4022,PAYLOAD,2024-04-20 09:47:00,15.08861439,0.0001462,53.216,118.8994,89.2483,270.8677,0.00036705,5.562e-05,0.0,0 STARLINK-4022,1 52629U 22052AH  24111.40765032  .00005562  00000-0  36705-3 0  9993,2 52629  53.2160 118.8994 0001462  89.2483 270.8677 15.08861439107088,6917.815,95.436,540.691,538.668,0.0
52629.0,STARLINK-4022,PAYLOAD,2024-04-21 00:05:30,15.08840376,0.0001171,53.2161,116.2228,85.2491,274.8635,-1.7649e-06,-3.16e-06,0.0,0 STARLINK-4022,1 52629U 22052AH  24112.00381951 -.00000316  00000-0 -17649-5 0  9996,2 52629  53.2161 116.2228 0001171  85.2491 274.8635 15.08840376107550,6917.879,95.438,540.554,538.934,0.0
52629.0,STARLINK-4022,PAYLOAD,2024-04-21 09:37:49,15.08830201,0.0001367,53.2163,114.4383,64.8944,295.219,-0.00013303,-2.404e-05,0.0,0 STARLINK-4022,1 52629U 22052AH  24112.40126783 -.00002404  00000-0 -13303-3 0  9991,2 52629  53.2163 114.4383 0001367  64.8944 295.2190 15.08830201107231,6917.91,95.438,540.721,538.83,0.0
52629.0,STARLINK-4022,PAYLOAD,2024-04-22 04:42:27,15.08837763,0.0001128,53.2151,110.8762,86.2894,273.8227,7.2065e-05,8.59e-06,0.0,0 STARLINK-4022,1 52629U 22052AH  24113.19614621  .00000859  00000-0  72065-4 0  9992,2 52629  53.2151 110.8762 0001128  86.2894 273.8227 15.08837763107734,6917.887,95.438,540.533,538.972,0.0
52629.0,STARLINK-4022,PAYLOAD,2024-04-22 06:17:50,15.08843721,0.0001476,53.2158,110.5747,76.9148,283.2008,0.00023692,3.485e-05,0.0,0 STARLINK-4022,1 52629U 22052AH  24113.26238531  .00003485  00000-0  23692-3 0  9991,2 52629  53.2158 110.5747 0001476  76.9148 283.2008 15.08843721107367,6917.869,95.437,540.755,538.713,0.0
52629.0,STARLINK-4022,PAYLOAD,2024-04-23 09:19:23,15.08853471,0.0001276,53.2156,105.5176,103.0951,257.0184,0.00041929,6.394e-05,0.0,0 STARLINK-4022,1 52629U 22052AH  24114.38846291  .00006394  00000-0  41929-3 0  9998,2 52629  53.2156 105.5176 0001276 103.0951 257.0184 15.08853471107915,6917.839,95.437,540.587,538.821,0.0
52629.0,STARLINK-4022,PAYLOAD,2024-04-24 02:48:37,15.0884177,0.0001416,53.2159,102.2445,106.0929,254.0219,0.00015007,2.101e-05,0.0,0 STARLINK-4022,1 52629U 22052AH  24115.11710394  .00002101  00000-0  15007-3 0  9994,2 52629  53.2159 102.2445 0001416 106.0929 254.0219 15.08841770108023,6917.875,95.437,540.72,538.76,0.0
52629.0,STARLINK-4022,PAYLOAD,2024-04-24 05:59:24,15.08842781,0.0001388,53.2163,101.6502,106.2441,253.8704,3.6364e-05,2.91e-06,0.0,0 STARLINK-4022,1 52629U 22052AH  24115.24958352  .00000291  00000-0  36364-4 0  9994,2 52629  53.2163 101.6502 0001388 106.2441 253.8704 15.08842781107662,6917.872,95.437,540.697,538.777,0.0
52629.0,STARLINK-4022,PAYLOAD,2024-04-25 04:14:48,15.08840125,0.000135,53.2165,97.4872,101.066,259.0484,4.4845e-05,4.26e-06,0.0,0 STARLINK-4022,1 52629U 22052AH  24116.17694493  .00000426  00000-0  44845-4 0  9993,2 52629  53.2165  97.4872 0001350 101.0660 259.0484 15.08840125108182,6917.88,95.438,540.679,538.811,0.0
52629.0,STARLINK-4022,PAYLOAD,2024-04-26 05:40:58,15.08835548,0.0001291,53.2174,92.7287,95.9661,264.1478,6.6904e-05,7.77e-06,0.0,0 STARLINK-4022,1 52629U 22052AH  24117.23679186  .00000777  00000-0  66904-4 0  9992,2 52629  53.2174  92.7287 0001291  95.9661 264.1478 15.08835548108347,6917.894,95.438,540.652,538.866,0.0
52629.0,STARLINK-4022,PAYLOAD,2024-04-26 15:13:17,15.08844919,0.0001267,53.2177,90.949,88.0588,272.0549,0.00013756,1.902e-05,0.0,0 STARLINK-4022,1 52629U 22052AH  24117.63422478  .00001902  00000-0  13756-3 0  9993,2 52629  53.2177  90.9490 0001267  88.0588 272.0549 15.08844919108406,6917.865,95.437,540.607,538.854,0.0
